OBJECT_NAME,OBJECT_ID,EPOCH,MEAN_MOTION,ECCENTRICITY,INCLINATION,RA_OF_ASC_NODE,ARG_OF_PERICENTER,MEAN_ANOMALY,EPHEMERIS_TYPE,CLASSIFICATION_TYPE,NORAD_CAT_ID,ELEMENT_SET_NO,REV_AT_EPOCH,BSTAR,MEAN_MOTION_DOT,MEAN_MOTION_DDOT
STARLINK-33897,2025-094B,2026-07-01T01:19:12.172800,14.98338008,.0003346,70.0025,308.6470,270.4170,89.6605,0,U,63865,999,6440,.25254E-3,.2922E-4,0
STARLINK-34022,2025-094C,2026-06-30T11:12:16.010208,14.98344037,.00027825,70.0025,310.2011,270.5091,89.5750,0,U,63866,999,6409,.15314127E-3,.1735E-4,0
STARLINK-33979,2025-094D,2026-07-01T01:25:12.769248,14.98337055,.0003152,70.0027,308.6639,269.4226,90.6572,0,U,63867,999,6418,.19797E-3,.227E-4,0
STARLINK-34007,2025-094E,2026-07-01T01:55:30.194976,14.98088483,.0002891,70.0021,308.7355,255.2563,104.8276,0,U,63868,999,6418,-.51802E-2,-.60985E-3,0
STARLINK-34006,2025-094F,2026-07-01T02:31:31.876320,14.98342896,.0002938,70.0024,308.4200,271.1623,88.9200,0,U,63869,999,6419,.38674E-3,.4526E-4,0
STARLINK-33986,2025-094G,2026-07-01T00:00:00.998784,14.98356206,.0003453,70.0022,308.7309,271.4389,196.2210,0,U,63870,999,548,-.38955E-2,-.463E-3,0
STARLINK-34013,2025-094H,2026-07-01T02:25:17.100768,14.98339051,.0003259,70.0019,308.4085,267.1416,92.9370,0,U,63871,999,6419,.28687E-3,.3332E-4,0
STARLINK-34059,2025-094J,2026-07-01T01:49:15.543840,14.98340049,.0003437,70.0020,308.7222,268.2963,91.7803,0,U,63872,999,6418,.37241E-3,.4355E-4,0
STARLINK-33987,2025-094K,2026-06-30T10:35:57.608736,14.98335677,.00030835,70.0030,310.1179,269.0598,91.0208,0,U,63873,999,6409,.1450688E-3,.1639E-4,0
STARLINK-34052,2025-094L,2026-07-01T01:43:15.002688,14.98336499,.0002998,70.0025,308.7044,268.0728,92.0088,0,U,63874,999,6418,.25209E-3,.2917E-4,0
STARLINK-34023,2025-094M,2026-06-30T18:30:58.559904,14.97815214,.00028289,70.0023,309.2619,223.9667,136.1267,0,U,63875,999,6414,-.12235655E-1,-.141289E-2,0
STARLINK-33778,2025-094P,2026-07-01T01:25:26.973408,14.98337338,.0003305,70.0029,308.6572,268.4270,91.6510,0,U,63877,999,6418,.17159E-3,.1955E-4,0
STARLINK-33901,2025-094Q,2026-07-01T01:49:29.863776,14.98336747,.0003226,70.0027,308.7130,269.1364,90.9426,0,U,63878,999,6418,.25782E-3,.2985E-4,0
STARLINK-33812,2025-094R,2026-07-01T01:13:12.054144,14.98336770,.000359,70.0024,308.6272,273.5399,86.5349,0,U,63879,999,6418,.49302E-3,.5796E-4,0
STARLINK-33779,2025-094S,2026-07-01T01:37:14.206656,14.98338542,.0003118,70.0030,308.6918,266.9314,93.1488,0,U,63880,999,6418,.12616E-3,.1413E-4,0
STARLINK-33905,2025-094T,2026-07-01T02:13:16.128192,14.98339141,.0003036,70.0026,308.3763,268.2938,91.7873,0,U,63881,999,6419,.38688E-3,.4527E-4,0
STARLINK-34003,2025-094U,2026-07-01T04:00:03.000096,15.44689937,.0003349,69.9998,258.8624,272.2038,139.5191,0,U,63882,999,578,.20971E-2,.99279E-3,0
STARLINK-33968,2025-094V,2026-07-01T04:00:03.000096,14.98296544,.0003258,70.0025,308.5123,270.5819,195.8870,0,U,63883,999,576,.50868E-2,.61082E-3,0
STARLINK-33943,2025-094W,2026-07-01T02:07:15.484224,14.98333913,.0003391,70.0026,308.3615,268.0127,92.0643,0,U,63884,999,6419,.25275E-3,.2924E-4,0
STARLINK-33858,2025-094X,2026-06-30T18:42:38.559744,14.98345987,.00031941,70.0025,309.2878,269.4827,90.5966,0,U,63885,999,6414,.23698469E-3,.2737E-4,0
STARLINK-33885,2025-094Y,2026-07-01T02:19:16.447296,14.98336916,.000324,70.0023,308.3869,268.9064,91.1724,0,U,63886,999,6419,.24028E-3,.2776E-4,0
STARLINK-33904,2025-094Z,2026-07-01T02:13:30.181152,14.98342005,.000242,70.0026,308.3720,271.4492,88.6389,0,U,63887,999,6419,.41236E-3,.4832E-4,0
STARLINK-33981,2025-094AA,2026-07-01T01:31:28.324128,14.98343750,.0003279,70.0024,308.6717,269.6989,90.3794,0,U,63888,999,6418,.55214E-3,.6504E-4,0
STARLINK-33738,2025-094AB,2026-07-01T01:13:25.624128,14.98341709,.0003146,70.0027,308.6037,270.7638,89.3160,0,U,63889,999,6440,.33145E-3,.3865E-4,0
STARLINK-34116,2025-095A,2026-06-30T22:10:47.872416,15.27589975,.0001649,43.0007,256.8992,271.4683,88.5980,0,U,63890,999,6510,.63612E-3,.17289E-3,0
STARLINK-34123,2025-095B,2026-06-30T22:31:08.990400,15.27591368,.0001977,43.0025,257.0096,274.2715,85.7910,0,U,63891,999,6510,.52714E-3,.14277E-3,0
STARLINK-33972,2025-095D,2026-06-30T21:59:42.292608,15.27566038,.00005,42.9976,256.8378,48.5812,311.5082,0,U,63893,999,6510,.6641E-3,.18049E-3,0
STARLINK-33973,2025-095E,2026-06-30T16:25:25.300704,15.27578231,.00019488,42.9992,257.6797,293.6475,66.4172,0,U,63894,999,6507,.52803419E-3,.14296E-3,0
STARLINK-34119,2025-095F,2026-06-30T22:20:02.384160,15.27591234,.0003727,43.0061,256.9463,265.1382,94.9044,0,U,63895,999,6510,.71748E-3,.19543E-3,0
STARLINK-34143,2025-095G,2026-06-30T13:52:16.418784,15.27591999,.00009052,42.9984,258.5962,294.4760,65.5998,0,U,63896,999,6505,.70454363E-3,.19183E-3,0
STARLINK-33957,2025-095H,2026-06-30T22:25:36.841152,15.27610341,.0002349,43.0045,256.9732,265.8764,94.1819,0,U,63897,999,6509,.70336E-3,.19161E-3,0
STARLINK-34120,2025-095J,2026-06-30T14:45:42.765120,15.27593729,.00017992,42.9998,258.0156,271.0386,89.0260,0,U,63898,999,6506,.70051289E-3,.19073E-3,0
STARLINK-34134,2025-095K,2026-06-30T22:05:14.899776,15.27586899,.0001327,42.9993,256.8678,276.0936,83.9764,0,U,63899,999,6510,.55079E-3,.14928E-3,0
STARLINK-34118,2025-095L,2026-06-30T22:14:29.033088,15.27609129,.0002574,43.0015,256.9160,254.0518,106.0050,0,U,63900,999,6510,.88793E-3,.24275E-3,0
STARLINK-34125,2025-095M,2026-06-30T21:54:09.175680,15.27586155,.0000532,42.9998,256.8067,300.0153,60.0646,0,U,63901,999,6509,.6045E-3,.16413E-3,0
STARLINK-33955,2025-095N,2026-06-30T13:20:48.112224,15.27587286,.00018123,43.0012,258.4291,263.9554,96.1091,0,U,63902,999,6504,.51221905E-3,.13863E-3,0
STARLINK-34097,2025-095P,2026-06-30T13:48:34.461504,15.27580766,.0000846,42.9989,258.5746,40.3739,319.7175,0,U,63903,999,6504,.8427879E-3,.23002E-3,0
STARLINK-34092,2025-095Q,2026-06-30T22:21:53.788320,15.27604762,.000193,43.0019,256.9537,267.9244,92.1386,0,U,63904,999,6509,.67043E-3,.18246E-3,0
STARLINK-34114,2025-095R,2026-06-30T22:33:00.328032,15.27587882,.0001633,43.0005,257.0174,285.0414,75.0257,0,U,63905,999,6509,.61212E-3,.16624E-3,0
STARLINK-33770,2025-095S,2026-06-30T13:33:45.394272,15.27575516,.00018592,42.9969,258.5012,266.7343,93.3296,0,U,63906,999,6504,.49025811E-3,.13251E-3,0
STARLINK-34106,2025-095T,2026-06-30T07:11:34.891296,15.27586924,.00011474,42.9986,259.9401,271.9355,88.1365,0,U,63907,999,6500,.8329614E-3,.22735E-3,0
STARLINK-34083,2025-095U,2026-06-30T22:27:27.016704,15.27586742,.0001652,43.0052,256.9819,268.2401,91.8261,0,U,63908,999,6509,.48276E-3,.13049E-3,0
STARLINK-34066,2025-095V,2026-06-30T22:07:05.433888,15.27584802,.0002588,43.0044,256.8739,266.7101,93.3455,0,U,63909,999,6509,.54897E-3,.14878E-3,0
STARLINK-34071,2025-095W,2026-06-30T22:16:20.711136,15.27588317,.0001703,43.0011,256.9254,274.4055,85.6602,0,U,63910,999,6509,.83858E-3,.22892E-3,0
STARLINK-34038,2025-095X,2026-06-30T21:55:59.899872,15.27583329,.000135,42.9977,256.8163,272.1386,87.9311,0,U,63911,999,6509,.65806E-3,.17892E-3,0
STARLINK-34031,2025-095Y,2026-06-30T22:01:32.685888,15.27587652,.0001823,43.0002,256.8443,271.0192,89.0450,0,U,63912,999,6509,.54593E-3,.14795E-3,0
STARLINK-34070,2025-095Z,2026-06-29T14:27:18.826272,15.27585953,.00008647,43.0009,264.1704,292.0755,68.0005,0,U,63913,999,6489,.433226E-3,.1168E-3,0
STARLINK-34068,2025-095AA,2026-06-30T16:53:10.142304,15.27605410,.00017695,42.9982,257.8130,285.7970,74.2686,0,U,63914,999,6506,.34403083E-3,.9224E-4,0
STARLINK-34076,2025-095AB,2026-06-30T13:54:06.304032,15.27590438,.00016436,42.9991,258.6004,270.8724,89.1940,0,U,63915,999,6504,.23645438E-3,.6252E-4,0
STARLINK-33910,2025-095AC,2026-06-30T16:30:57.585600,15.27584056,.00031032,42.9989,257.6998,261.1149,98.9351,0,U,63916,999,6506,.41674218E-3,.11225E-3,0
STARLINK-34075,2025-095AD,2026-06-30T15:13:28.017984,15.27591963,.00015088,43.0013,258.1513,273.8256,86.2423,0,U,63917,999,6505,.18036841E-3,.4706E-4,0
YAOGAN-40 02A,2025-096A,2026-07-01T05:41:18.342240,14.12450913,.0002592,85.9952,181.6750,81.5323,278.6154,0,U,63918,999,5855,.50077E-4,.111E-5,0
YAOGAN-40 02B,2025-096B,2026-07-01T05:41:30.990336,14.12452156,.0002541,85.9949,181.6437,93.1656,266.9818,0,U,63919,999,5855,.74306E-4,.156E-5,0
YAOGAN-40 02C,2025-096C,2026-07-01T05:41:24.595008,14.12451818,.0002459,85.9954,180.9220,83.4751,276.6712,0,U,63920,999,7739,.697E-4,.147E-5,0
TJS-19,2025-097A,2026-06-30T16:34:46.690752,1.00272573,.0003291,3.2642,317.6506,237.3987,113.6840,0,U,63924,999,427,0,-.262E-5,0
STARLINK-34012,2025-098A,2026-06-30T21:01:30.673344,14.98344389,.0003652,70.0025,349.1993,259.9376,100.1372,0,U,63926,999,6354,.44675E-3,.5244E-4,0
STARLINK-33956,2025-098B,2026-07-01T04:00:03.000096,14.98340789,.0002933,70.0021,348.1843,266.9035,108.0653,0,U,63927,999,569,-.19715E-2,-.23544E-3,0
STARLINK-33997,2025-098C,2026-06-30T21:19:34.398912,14.98334065,.0003312,70.0023,349.2343,267.9524,92.1255,0,U,63928,999,6352,.48045E-3,.5645E-4,0
STARLINK-33989,2025-098D,2026-07-01T04:44:24.127008,14.98337987,.0002869,70.0024,348.3106,265.1742,94.9090,0,U,63929,999,6357,.34472E-3,.4023E-4,0
STARLINK-33980,2025-098E,2026-06-30T21:13:32.598912,14.98340586,.0003112,70.0023,349.2280,269.4680,90.6123,0,U,63930,999,6352,.29308E-3,.3407E-4,0
STARLINK-33994,2025-098F,2026-07-01T04:38:23.399232,14.98338591,.000259,70.0024,348.2962,267.2865,92.7998,0,U,63931,999,6357,.35693E-3,.4169E-4,0
STARLINK-33971,2025-098G,2026-06-30T21:07:46.212672,14.98339100,.0003123,70.0021,349.2140,267.4217,92.6585,0,U,63932,999,6352,.34822E-3,.4065E-4,0
STARLINK-33877,2025-098H,2026-07-01T04:00:03.000096,14.98339643,.0002468,70.0017,348.2038,271.4820,80.0912,0,U,63933,999,568,-.19974E-2,-.2385E-3,0
STARLINK-33895,2025-098J,2026-07-01T04:14:19.173984,14.98380079,.0003093,70.0019,348.2360,264.3443,95.7363,0,U,63934,999,6357,.11874E-2,.14122E-3,0
STARLINK-34005,2025-098K,2026-06-30T11:36:58.514112,14.98337617,.00030397,70.0023,350.2298,266.2190,93.8621,0,U,63935,999,6345,.27012028E-3,.3132E-4,0
